<?xml version="1.0" encoding="UTF-8"?>
<kml xmlns="http://www.opengis.net/kml/2.2" xmlns:gx="http://www.google.com/kml/ext/2.2" xmlns:kml="http://www.opengis.net/kml/2.2" xmlns:atom="http://www.w3.org/2005/Atom">
<Document id="MalKH" xsi:schemaLocation="http://www.opengis.net/kml/2.2 http://schemas.opengis.net/kml/2.2.0/ogckml22.xsd http://www.google.com/kml/ext/2.2 http://code.google.com/apis/kml/schema/kml22gx.xsd">
	<name>MalKH</name>
	<Snippet maxLines="0"></Snippet>
	<atom:link rel="app" href="https://www.google.com/earth/about/versions/#earth-pro" title="Google Earth Pro 7.3.7.1327"></atom:link>
	<Style id="PolyStyle00">
		<LabelStyle>
			<color>00000000</color>
			<scale>0</scale>
		</LabelStyle>
		<LineStyle>
			<color>ff0000ff</color>
			<width>1.2</width>
		</LineStyle>
		<PolyStyle>
			<color>ffe6f2cb</color>
			<fill>0</fill>
		</PolyStyle>
	</Style>
	<Style id="PolyStyle000">
		<LabelStyle>
			<color>00000000</color>
			<scale>0</scale>
		</LabelStyle>
		<LineStyle>
			<color>ff0000ff</color>
			<width>1.2</width>
		</LineStyle>
		<PolyStyle>
			<color>ffe6f2cb</color>
			<fill>0</fill>
		</PolyStyle>
	</Style>
	<StyleMap id="PolyStyle001">
		<Pair>
			<key>normal</key>
			<styleUrl>#PolyStyle00</styleUrl>
		</Pair>
		<Pair>
			<key>highlight</key>
			<styleUrl>#PolyStyle000</styleUrl>
		</Pair>
	</StyleMap>
	<Folder id="FeatureLayer0">
		<name>MalKH</name>
		<Snippet maxLines="0"></Snippet>
		<Placemark id="ID_00000">
			<name>Malegaon Kh.</name>
			<Snippet maxLines="0"></Snippet>
			<description><![CDATA[<html xmlns:fo="http://www.w3.org/1999/XSL/Format" xmlns:msxsl="urn:schemas-microsoft-com:xslt">

<head>

<META http-equiv="Content-Type" content="text/html">

<meta http-equiv="content-type" content="text/html; charset=UTF-8">

</head>

<body style="margin:0px 0px 0px 0px;overflow:auto;background:#FFFFFF;">

<table style="font-family:Arial,Verdana,Times;font-size:12px;text-align:left;width:100%;border-collapse:collapse;padding:3px 3px 3px 3px">

<tr style="text-align:center;font-weight:bold;background:#9CBCE2">

<td>Malegaon Kh.</td>

</tr>

<tr>

<td>

<table style="font-family:Arial,Verdana,Times;font-size:12px;text-align:left;width:100%;border-spacing:0px; padding:3px 3px 3px 3px">

<tr>

<td>FID</td>

<td>0</td>

</tr>

<tr bgcolor="#D4E4F3">

<td>SUB_DIST</td>

<td>Baramati</td>

</tr>

<tr>

<td>DISTRICT</td>

<td>Pune</td>

</tr>

<tr bgcolor="#D4E4F3">

<td>STATE</td>

<td>Maharashtra</td>

</tr>

<tr>

<td>TYPE</td>

<td>village</td>

</tr>

<tr bgcolor="#D4E4F3">

<td>NAME</td>

<td>Malegaon Kh.</td>

</tr>

<tr>

<td>CEN_2001</td>

<td>275210419903178700</td>

</tr>

</table>

</td>

</tr>

</table>

</body>

</html>]]></description>
			<styleUrl>#PolyStyle001</styleUrl>
			<MultiGeometry>
				<Polygon>
					<outerBoundaryIs>
						<LinearRing>
							<coordinates>
								74.50239136500005,18.16786199200005,0 74.49988338800007,18.16814706700006,0 74.49769562700007,18.16829538600007,0 74.49705746000008,18.16801182000006,0 74.49635932900004,18.16796786100003,0 74.49525888700003,18.16833501500003,0 74.49478036400006,18.16524755100005,0 74.49448309600008,18.16177101400007,0 74.4944051830001,18.16019925500007,0 74.49428142700005,18.15920570600003,0 74.49444205300006,18.15801571000003,0 74.49475303200006,18.15757090000006,0 74.49490697300008,18.15705467700008,0 74.49456750400005,18.15614903300008,0 74.4946904160001,18.15565048300004,0 74.49508706100006,18.15518864300003,0 74.49585897500003,18.15403882000004,0 74.4960666640001,18.15329949600005,0 74.49660584900008,18.15230921900007,0 74.49692776600007,18.15155223900007,0 74.49709919200006,18.15056534200005,0 74.49718794300004,18.14964319500007,0 74.49697460300008,18.14919772100007,0 74.49739276500004,18.14855564400006,0 74.4977446760001,18.14839791500003,0 74.49823462100008,18.14859045100008,0 74.49877500300005,18.14897572200005,0 74.49907016200007,18.14864563200007,0 74.49899239000007,18.14794616300003,0 74.49963773900005,18.14656128200005,0 74.50004272500007,18.14640656900008,0 74.50081252300004,18.14645173900005,0 74.50160481300003,18.14622992500006,0 74.50186118500007,18.14601059900002,0 74.50280054100006,18.14548346700008,0 74.50357833900004,18.14515629000004,0 74.50438128700006,18.14493238900008,0 74.50514012800005,18.14458317500004,0 74.50573482300005,18.14410753000004,0 74.50704209600008,18.14346624400002,0 74.50873000500006,18.14237127800004,0 74.50985825900005,18.14178865500003,0 74.51017671100004,18.14143753000008,0 74.50994268200003,18.14057125700003,0 74.50990229000007,18.13979414700004,0 74.50993823700001,18.13819684700007,0 74.51021070400004,18.13789497200003,0 74.51146709100006,18.13775083300004,0 74.51227032100007,18.13754123300004,0 74.51296640400007,18.13708539200008,0 74.51367526400004,18.13647817900005,0 74.51465647800008,18.13594335800008,0 74.51605867300003,18.13543489200003,0 74.51714815700007,18.13484531000007,0 74.51896900100009,18.13507979900004,0 74.51960367600005,18.13528689000003,0 74.52128631800008,18.13516056200007,0 74.52293680700004,18.13518600100003,0 74.52641265400007,18.13478777600006,0 74.52878364100009,18.13448316200004,0 74.53022395700005,18.13417918300008,0 74.53236060000006,18.13381459800008,0 74.53270745200005,18.13397723100008,0 74.53306255200005,18.13366455000005,0 74.53510706800006,18.13339726200008,0 74.53614174700004,18.13352366400005,0 74.53594085500004,18.13389170400007,0 74.53603042000003,18.13476779900003,0 74.53484317900006,18.13825691600005,0 74.53442594000008,18.13940435800004,0 74.53413047900007,18.14089691400006,0 74.53405438200009,18.14158548000006,0 74.53376796200007,18.14305058900004,0 74.53374623800005,18.14453744700006,0 74.53363812700006,18.14604511700003,0 74.53328019400004,18.14886899500005,0 74.53271258000007,18.15118987500006,0 74.53234959600006,18.15305707700003,0 74.53232175500005,18.15446159100003,0 74.53240880600001,18.15498701400004,0 74.53308764900005,18.15806155500008,0 74.53186084600003,18.15797849500008,0 74.53131110000004,18.15822092000008,0 74.52896111900002,18.15869509600003,0 74.52829270600004,18.15891048600003,0 74.52773172200004,18.15924383200007,0 74.52542887700007,18.16013367000005,0 74.52463517000007,18.16084802400008,0 74.52365953300006,18.16157513200006,0 74.52209755800003,18.16245410600004,0 74.51993455200005,18.16361516800004,0 74.51730092300006,18.16507557500006,0 74.51493652500007,18.16633047600004,0 74.51385707800006,18.16679974700003,0 74.5132047530001,18.16685005300008,0 74.50932857100008,18.16731339800003,0 74.50898967700006,18.16727009200003,0 74.50756644500009,18.16733242700008,0 74.50540707600003,18.16773299600004,0 74.50239136500005,18.16786199200005,0 
							</coordinates>
						</LinearRing>
					</outerBoundaryIs>
				</Polygon>
			</MultiGeometry>
		</Placemark>
	</Folder>
</Document>
</kml>
